[{"OBJECT_NAME":"IRIDIUM 151","OBJECT_ID":"2017-083E","EPOCH":"2026-03-09T21:03:19.137312","MEAN_MOTION":14.34219156,"ECCENTRICITY":0.00022172,"INCLINATION":86.4026,"RA_OF_ASC_NODE":3.558,"ARG_OF_PERICENTER":86.5929,"MEAN_ANOMALY":273.552,"EPHEMERIS_TYPE":0,"CLASSIFICATION_TYPE":"U","NORAD_CAT_ID":43074,"ELEMENT_SET_NO":999,"REV_AT_EPOCH":42990,"BSTAR":0.00015053451,"MEAN_MOTION_DOT":4.41e-6,"MEAN_MOTION_DDOT":0},{"OBJECT_NAME":"NOAA 16 DEB","OBJECT_ID":"2000-055NL","EPOCH":"2026-03-09T02:24:22.336992","MEAN_MOTION":14.35938355,"ECCENTRICITY":0.00137728,"INCLINATION":98.7288,"RA_OF_ASC_NODE":170.8322,"ARG_OF_PERICENTER":130.254,"MEAN_ANOMALY":229.9852,"EPHEMERIS_TYPE":0,"CLASSIFICATION_TYPE":"U","NORAD_CAT_ID":41536,"ELEMENT_SET_NO":999,"REV_AT_EPOCH":52509,"BSTAR":0.0023901192,"MEAN_MOTION_DOT":6.904e-5,"MEAN_MOTION_DDOT":0}]
